NORAD_CAT_ID,OBJECT_NAME,OBJECT_TYPE,EPOCH,MEAN_MOTION,ECCENTRICITY,INCLINATION,RA_OF_ASC_NODE,ARG_OF_PERICENTER,MEAN_ANOMALY,BSTAR,MEAN_MOTION_DOT,MEAN_MOTION_DDOT,TLE_LINE0,TLE_LINE1,TLE_LINE2,SEMIMAJOR_AXIS,PERIOD,APOGEE,PERIGEE,DECAYED
55775.0,STARLINK-5809,PAYLOAD,2023-08-20 18:42:22,14.98329597,0.0003093,69.9994,54.0604,271.1369,88.9435,3.5203e-05,3.27e-06,0.0,0 STARLINK-5809,1 55775U 23028AL  23232.77942544  .00000327  00000-0  35203-4 0  9997,2 55775  69.9994  54.0604 0003093 271.1369  88.9435 14.98329597 26945,6950.194,96.107,574.209,569.909,0.0
55775.0,STARLINK-5809,PAYLOAD,2023-08-21 18:44:23,14.98328029,0.0002907,70.0001,51.5365,266.3258,93.7569,-4.0832e-06,-1.42e-06,0.0,0 STARLINK-5809,1 55775U 23028AL  23233.78082735 -.00000142  00000-0 -40832-5 0  9998,2 55775  70.0001  51.5365 0002907 266.3258  93.7569 14.98328029 27097,6950.199,96.107,574.084,570.044,0.0
55775.0,STARLINK-5809,PAYLOAD,2023-08-22 21:58:40,14.98330501,0.0002889,70.0002,48.6748,266.6764,93.4064,-1.0864e-05,-2.23e-06,0.0,0 STARLINK-5809,1 55775U 23028AL  23234.91574608 -.00000223  00000-0 -10864-4 0  9990,2 55775  70.0002  48.6748 0002889 266.6764  93.4064 14.98330501 27268,6950.191,96.107,574.064,570.048,0.0
55775.0,STARLINK-5809,PAYLOAD,2023-08-24 12:25:53,14.98331883,0.0002944,70.0006,44.6349,265.8304,94.2518,1.5838e-05,9.6e-07,0.0,0 STARLINK-5809,1 55775U 23028AL  23236.51798324  .00000096  00000-0  15838-4 0  9993,2 55775  70.0006  44.6349 0002944 265.8304  94.2518 14.98331883 27502,6950.187,96.107,574.098,570.006,0.0
55775.0,STARLINK-5809,PAYLOAD,2023-08-24 22:02:41,14.98333066,0.0002917,70.0007,43.6249,264.6245,95.4581,3.0269e-05,2.68e-06,0.0,0 STARLINK-5809,1 55775U 23028AL  23236.91854126  .00000268  00000-0  30269-4 0  9996,2 55775  70.0007  43.6249 0002917 264.6245  95.4581 14.98333066 27566,6950.183,96.107,574.076,570.021,0.0
55775.0,STARLINK-5809,PAYLOAD,2023-08-25 10:51:46,14.98307777,0.0002778,70.0008,42.2774,265.7201,94.3641,0.00038177,4.463e-05,0.0,0 STARLINK-5809,1 55775U 23028AL  23237.45262409  .00004463  00000-0  38177-3 0  9999,2 55775  70.0008  42.2774 0002778 265.7201  94.3641 14.98307777 27648,6950.262,96.108,574.057,570.196,0.0
55775.0,STARLINK-5809,PAYLOAD,2023-08-25 12:27:54,14.98331514,0.0002885,70.0008,42.1094,264.4924,95.5906,4.7947e-07,-8.7e-07,0.0,0 STARLINK-5809,1 55775U 23028AL  23237.51938221 -.00000087  00000-0  47947-6 0  9995,2 55775  70.0008  42.1094 0002885 264.4924  95.5906 14.98331514 27653,6950.188,96.107,574.058,570.048,0.0
55775.0,STARLINK-5809,PAYLOAD,2023-08-25 18:52:26,14.98331171,0.0002831,70.0007,41.4362,262.9827,97.101,1.0944e-05,3.8e-07,0.0,0 STARLINK-5809,1 55775U 23028AL  23237.78642178  .00000038  00000-0  10944-4 0  9997,2 55775  70.0007  41.4362 0002831 262.9827  97.1010 14.98331171 27695,6950.189,96.107,574.022,570.087,0.0
55775.0,STARLINK-5809,PAYLOAD,2023-08-25 20:28:34,14.98331832,0.0002883,70.0006,41.2678,264.8214,95.2616,6.3519e-06,-1.7e-07,0.0,0 STARLINK-5809,1 55775U 23028AL  23237.85318139 -.00000017  00000-0  63519-5 0  9997,2 55775  70.0006  41.2678 0002883 264.8214  95.2616 14.98331832 27707,6950.187,96.107,574.056,570.048,0.0
55775.0,STARLINK-5809,PAYLOAD,2023-08-26 12:29:55,14.98328116,0.0002826,70.0007,39.5843,263.2524,96.8314,-4.1457e-05,-5.88e-06,0.0,0 STARLINK-5809,1 55775U 23028AL  23238.52078472 -.00000588  00000-0 -41457-4 0  9995,2 55775  70.0007  39.5843 0002826 263.2524  96.8314 14.98328116 27800,6950.199,96.107,574.028,570.1,0.0
55775.0,STARLINK-5809,PAYLOAD,2023-08-26 20:30:36,14.98328283,0.0002813,70.0009,38.743,263.0847,96.9992,-3.4445e-05,-5.04e-06,0.0,0 STARLINK-5809,1 55775U 23028AL  23238.85458470 -.00000504  00000-0 -34445-4 0  9998,2 55775  70.0009  38.7430 0002813 263.0847  96.9992 14.98328283 27850,6950.198,96.107,574.018,570.108,0.0
55775.0,STARLINK-5809,PAYLOAD,2023-08-26 22:06:44,14.98329441,0.0002854,70.0008,38.5746,264.5052,95.5782,-2.6007e-05,-4.03e-06,0.0,0 STARLINK-5809,1 55775U 23028AL  23238.92134379 -.00000403  00000-0 -26007-4 0  9998,2 55775  70.0008  38.5746 0002854 264.5052  95.5782 14.98329441 27866,6950.195,96.107,574.043,570.076,0.0
55775.0,STARLINK-5809,PAYLOAD,2023-08-27 20:32:36,14.98329958,0.0002948,70.001,36.2189,266.4177,93.6645,-2.0365e-06,-1.17e-06,0.0,0 STARLINK-5809,1 55775U 23028AL  23239.85598301 -.00000117  00000-0 -20365-5 0  9994,2 55775  70.0010  36.2189 0002948 266.4177  93.6645 14.98329958 28005,6950.193,96.107,574.107,570.009,0.0
55775.0,STARLINK-5809,PAYLOAD,2023-08-27 22:08:44,14.9833168,0.0002977,70.0007,36.0501,266.9744,93.1074,1.9917e-05,1.45e-06,0.0,0 STARLINK-5809,1 55775U 23028AL  23239.92274130  .00000145  00000-0  19917-4 0  9992,2 55775  70.0007  36.0501 0002977 266.9744  93.1074 14.98331680 28011,6950.188,96.107,574.122,569.984,0.0
55775.0,STARLINK-5809,PAYLOAD,2023-08-28 20:34:37,14.98334576,0.0002927,70.0009,33.6932,266.9043,93.1781,7.7446e-05,8.31e-06,0.0,0 STARLINK-5809,1 55775U 23028AL  23240.85737667  .00000831  00000-0  77446-4 0  9998,2 55775  70.0009  33.6932 0002927 266.9043  93.1781 14.98334576 28158,6950.179,96.107,574.078,570.009,0.0
55775.0,STARLINK-5809,PAYLOAD,2023-08-28 22:10:45,14.98336369,0.0003004,70.0007,33.5246,268.6824,91.3991,9.638e-05,1.057e-05,0.0,0 STARLINK-5809,1 55775U 23028AL  23240.92413476  .00001057  00000-0  96380-4 0  9994,2 55775  70.0007  33.5246 0003004 268.6824  91.3991 14.98336369 28162,6950.173,96.107,574.126,569.95,0.0
55775.0,STARLINK-5809,PAYLOAD,2023-08-29 09:23:42,14.98327357,0.0002954,70.0005,32.3462,269.5813,90.5007,-9.1469e-06,-2.02e-06,0.0,0 STARLINK-5809,1 55775U 23028AL  23241.39146282 -.00000202  00000-0 -91469-5 0  9991,2 55775  70.0005  32.3462 0002954 269.5813  90.5007 14.98327357 28232,6950.201,96.107,574.119,570.013,0.0
55775.0,STARLINK-5809,PAYLOAD,2023-08-29 20:36:38,14.98324852,0.0002288,70.0012,31.1686,248.0601,112.0315,2.2085e-05,1.71e-06,0.0,0 STARLINK-5809,1 55775U 23028AL  23241.85878407  .00000171  00000-0  22085-4 0  9993,2 55775  70.0012  31.1686 0002288 248.0601 112.0315 14.98324852 28309,6950.209,96.107,573.664,570.484,0.0
55775.0,STARLINK-5809,PAYLOAD,2023-08-30 09:25:43,14.98331715,0.000298,70.001,29.8213,270.8109,89.2709,-2.17e-05,-3.52e-06,0.0,0 STARLINK-5809,1 55775U 23028AL  23242.39285991 -.00000352  00000-0 -21700-4 0  9999,2 55775  70.0010  29.8213 0002980 270.8109  89.2709 14.98331715 28388,6950.188,96.107,574.124,569.981,0.0
55775.0,STARLINK-5809,PAYLOAD,2023-08-30 15:50:15,14.98332757,0.0003031,70.001,29.1487,267.0564,93.0248,-4.4934e-05,-6.29e-06,0.0,0 STARLINK-5809,1 55775U 23028AL  23242.65989963 -.00000629  00000-0 -44934-4 0  9999,2 55775  70.0010  29.1487 0003031 267.0564  93.0248 14.98332757 28428,6950.184,96.107,574.156,569.943,0.0
55775.0,STARLINK-5809,PAYLOAD,2023-08-30 22:14:46,14.98344026,0.0002993,70.0004,28.4754,265.1856,94.8961,-0.0001251,-1.586e-05,0.0,0 STARLINK-5809,1 55775U 23028AL  23242.92693277 -.00001586  00000-0 -12510-3 0  9996,2 55775  70.0004  28.4754 0002993 265.1856  94.8961 14.98344026 28466,6950.15,96.106,574.095,569.934,0.0
55775.0,STARLINK-5809,PAYLOAD,2023-08-31 03:03:11,14.98330797,0.000336,70.0011,27.9704,268.8716,91.2058,-7.4085e-05,-9.77e-06,0.0,0 STARLINK-5809,1 55775U 23028AL  23243.12721913 -.00000977  00000-0 -74085-4 0  9997,2 55775  70.0011  27.9704 0003360 268.8716  91.2058 14.98330797 28498,6950.19,96.107,574.391,569.72,0.0
55775.0,STARLINK-5809,PAYLOAD,2023-09-01 09:29:45,14.98325539,0.0003003,70.0009,24.7708,270.6469,89.4346,-6.4298e-06,-1.7e-06,0.0,0 STARLINK-5809,1 55775U 23028AL  23244.39566427 -.00000170  00000-0 -64298-5 0  9995,2 55775  70.0009  24.7708 0003003 270.6469  89.4346 14.98325539 28682,6950.207,96.107,574.159,569.985,0.0
55775.0,STARLINK-5809,PAYLOAD,2023-09-01 15:54:17,14.9832634,0.0003057,70.0008,24.0974,268.6472,91.4337,6.014e-05,6.25e-06,0.0,0 STARLINK-5809,1 55775U 23028AL  23244.66270182  .00000625  00000-0  60140-4 0  9999,2 55775  70.0008  24.0974 0003057 268.6472  91.4337 14.98326340 28728,6950.204,96.107,574.194,569.945,0.0
55775.0,STARLINK-5809,PAYLOAD,2023-09-02 09:31:46,14.98328391,0.0002916,70.0,22.2458,269.888,90.1945,3.9594e-05,3.79e-06,0.0,0 STARLINK-5809,1 55775U 23028AL  23245.39706130  .00000379  00000-0  39594-4 0  9992,2 55775  70.0000  22.2458 0002916 269.8880  90.1945 14.98328391 28837,6950.198,96.107,574.09,570.036,0.0
55775.0,STARLINK-5809,PAYLOAD,2023-09-02 12:44:02,14.98328823,0.0002947,70.0003,21.9091,270.0076,90.0745,4.115e-05,3.98e-06,0.0,0 STARLINK-5809,1 55775U 23028AL  23245.53058062  .00000398  00000-0  41150-4 0  9994,2 55775  70.0003  21.9091 0002947 270.0076  90.0745 14.98328823 28853,6950.197,96.107,574.11,570.013,0.0
55775.0,STARLINK-5809,PAYLOAD,2023-09-02 15:56:16,14.98353267,0.0002432,70.0039,21.5724,270.326,89.762,0.00023736,2.742e-05,0.0,0 STARLINK-5809,1 55775U 23028AL  23245.66408243  .00002742  00000-0  23736-3 0  9992,2 55775  70.0039  21.5724 0002432 270.3260  89.7620 14.98353267 28877,6950.121,96.106,573.676,570.296,0.0
55775.0,STARLINK-5809,PAYLOAD,2023-09-02 19:08:34,14.98335971,0.0003007,70.0012,21.2362,272.9503,87.1312,6.0951e-05,6.34e-06,0.0,0 STARLINK-5809,1 55775U 23028AL  23245.79761657  .00000634  00000-0  60951-4 0  9996,2 55775  70.0012  21.2362 0003007 272.9503  87.1312 14.98335971 28894,6950.174,96.107,574.129,569.95,0.0
55775.0,STARLINK-5809,PAYLOAD,2023-09-02 20:44:41,14.98338795,0.0003022,70.0014,21.0677,273.1355,86.9458,8.6276e-05,9.37e-06,0.0,0 STARLINK-5809,1 55775U 23028AL  23245.86437352  .00000937  00000-0  86276-4 0  9990,2 55775  70.0014  21.0677 0003022 273.1355  86.9458 14.98338795 28905,6950.166,96.106,574.131,569.93,0.0
55775.0,STARLINK-5809,PAYLOAD,2023-09-03 07:57:38,14.98335577,0.0002507,70.0017,19.8897,282.1471,77.9407,4.9924e-05,5.03e-06,0.0,0 STARLINK-5809,1 55775U 23028AL  23246.33169694  .00000503  00000-0  49924-4 0  9992,2 55775  70.0017  19.8897 0002507 282.1471  77.9407 14.98335577 28979,6950.176,96.107,573.783,570.298,0.0
